[{"OBJECT_NAME":"STARLINK-34686","OBJECT_ID":"2025-167K","EPOCH":"2026-03-09T06:54:19.261152","MEAN_MOTION":15.30199942,"ECCENTRICITY":0.00011335,"INCLINATION":53.1619,"RA_OF_ASC_NODE":28.8582,"ARG_OF_PERICENTER":84.6133,"MEAN_ANOMALY":275.4997,"EPHEMERIS_TYPE":0,"CLASSIFICATION_TYPE":"U","NORAD_CAT_ID":65087,"ELEMENT_SET_NO":999,"REV_AT_EPOCH":3341,"BSTAR":0.0010949998,"MEAN_MOTION_DOT":0.00032212,"MEAN_MOTION_DDOT":0},{"OBJECT_NAME":"CZ-6A DEB","OBJECT_ID":"2024-140RH","EPOCH":"2026-03-09T12:32:13.567200","MEAN_MOTION":15.23024459,"ECCENTRICITY":0.01073082,"INCLINATION":88.6757,"RA_OF_ASC_NODE":253.1302,"ARG_OF_PERICENTER":74.0491,"MEAN_ANOMALY":287.2547,"EPHEMERIS_TYPE":0,"CLASSIFICATION_TYPE":"U","NORAD_CAT_ID":61163,"ELEMENT_SET_NO":999,"REV_AT_EPOCH":8457,"BSTAR":0.0019108924,"MEAN_MOTION_DOT":0.00053105,"MEAN_MOTION_DDOT":0}]
